start=new Date('2022-07-02T00:00:00.000Z').valueOf();
sats=[{"MEAN_MOTION":"15.06403281","FILE":"3506285","TLE_LINE1":"1 46342U 20062T   22182.53928833  .00000133  00000-0  27827-4 0  9992","TIME_SYSTEM":"UTC","MEAN_ELEMENT_THEORY":"SGP4","ELEMENT_SET_NO":"999","MEAN_ANOMALY":"290.7384","OBJECT_ID":"2020-062T","SEMIMAJOR_AXIS":"6925.339","ECCENTRICITY":"0.00015450","EPOCH":"2022-07-01T12:56:34.511712","OBJECT_TYPE":"PAYLOAD","EPHEMERIS_TYPE":"0","NORAD_CAT_ID":"46342","PERIOD":"95.592","BSTAR":"0.00002782700000","REV_AT_EPOCH":"10126","SITE":"AFETR","RCS_SIZE":"LARGE","OBJECT_NAME":"STARLINK-1762","CLASSIFICATION_TYPE":"U","ARG_OF_PERICENTER":"69.3771","LAUNCH_DATE":"2020-09-03","PERIAPSIS":"546.134","TLE_LINE2":"2 46342  53.0568 304.2032 0001545  69.3771 290.7384 15.06403281101263","COUNTRY_CODE":"US","RA_OF_ASC_NODE":"304.2032","MEAN_MOTION_DDOT":"0.0000000000000","INCLINATION":"53.0568","MEAN_MOTION_DOT":"0.00000133","DECAY_DATE":null,"CENTER_NAME":"EARTH","APOAPSIS":"548.273","REF_FRAME":"TEME","GP_ID":"207207965"},{"MEAN_ANOMALY":"296.3865","ELEMENT_SET_NO":"999","EPOCH":"2022-07-01T12:48:38.054592","ECCENTRICITY":"0.00012890","SEMIMAJOR_AXIS":"6925.383","OBJECT_ID":"2020-062U","OBJECT_TYPE":"PAYLOAD","MEAN_MOTION":"15.06388883","FILE":"3506285","TIME_SYSTEM":"UTC","TLE_LINE1":"1 46343U 20062U   22182.53377378  .00001601  00000-0  12638-3 0  9999","MEAN_ELEMENT_THEORY":"SGP4","COUNTRY_CODE":"US","TLE_LINE2":"2 46343  53.0543 284.2494 0001289  63.7256 296.3865 15.06388883101544","PERIAPSIS":"546.355","LAUNCH_DATE":"2020-09-03","INCLINATION":"53.0543","MEAN_MOTION_DDOT":"0.0000000000000","RA_OF_ASC_NODE":"284.2494","MEAN_MOTION_DOT":"0.00001601","GP_ID":"207206713","REF_FRAME":"TEME","APOAPSIS":"548.140","DECAY_DATE":null,"CENTER_NAME":"EARTH","BSTAR":"0.00012638000000","REV_AT_EPOCH":"10154","PERIOD":"95.593","NORAD_CAT_ID":"46343","EPHEMERIS_TYPE":"0","CLASSIFICATION_TYPE":"U","SITE":"AFETR","RCS_SIZE":"LARGE","OBJECT_NAME":"STARLINK-1764","ARG_OF_PERICENTER":"63.7256"},{"OBJECT_TYPE":"PAYLOAD","MEAN_ANOMALY":"302.5721","ELEMENT_SET_NO":"999","EPOCH":"2022-07-01T13:15:09.216864","SEMIMAJOR_AXIS":"6925.344","ECCENTRICITY":"0.00017510","OBJECT_ID":"2020-062V","TIME_SYSTEM":"UTC","TLE_LINE1":"1 46344U 20062V   22182.55219001  .00001662  00000-0  13046-3 0  9991","MEAN_ELEMENT_THEORY":"SGP4","MEAN_MOTION":"15.06401613","FILE":"3506285","MEAN_MOTION_DOT":"0.00001662","GP_ID":"207206963","REF_FRAME":"TEME","APOAPSIS":"548.421","CENTER_NAME":"EARTH","DECAY_DATE":null,"TLE_LINE2":"2 46344  53.0554 284.1642 0001751  57.5437 302.5721 15.06401613101545","COUNTRY_CODE":"US","PERIAPSIS":"545.996","LAUNCH_DATE":"2020-09-03","INCLINATION":"53.0554","RA_OF_ASC_NODE":"284.1642","MEAN_MOTION_DDOT":"0.0000000000000","ARG_OF_PERICENTER":"57.5437","BSTAR":"0.00013046000000","REV_AT_EPOCH":"10154","PERIOD":"95.592","NORAD_CAT_ID":"46344","EPHEMERIS_TYPE":"0","CLASSIFICATION_TYPE":"U","SITE":"AFETR","OBJECT_NAME":"STARLINK-1765","RCS_SIZE":"LARGE"},{"ARG_OF_PERICENTER":"70.3916","CLASSIFICATION_TYPE":"U","OBJECT_NAME":"STARLINK-1767","SITE":"AFETR","RCS_SIZE":"LARGE","PERIOD":"95.592","NORAD_CAT_ID":"46345","EPHEMERIS_TYPE":"0","BSTAR":"0.00001728000000","REV_AT_EPOCH":"10126","APOAPSIS":"548.304","REF_FRAME":"TEME","DECAY_DATE":null,"CENTER_NAME":"EARTH","GP_ID":"207207214","MEAN_MOTION_DOT":"-0.00000024","INCLINATION":"53.0570","MEAN_MOTION_DDOT":"0.0000000000000","RA_OF_ASC_NODE":"304.1316","PERIAPSIS":"546.100","LAUNCH_DATE":"2020-09-03","COUNTRY_CODE":"US","TLE_LINE2":"2 46345  53.0570 304.1316 0001591  70.3916 289.7244 15.06403802101269","MEAN_ELEMENT_THEORY":"SGP4","TLE_LINE1":"1 46345U 20062W   22182.55308384 -.00000024  00000-0  17280-4 0  9992","TIME_SYSTEM":"UTC","FILE":"3506285","MEAN_MOTION":"15.06403802","OBJECT_TYPE":"PAYLOAD","SEMIMAJOR_AXIS":"6925.337","ECCENTRICITY":"0.00015910","OBJECT_ID":"2020-062W","EPOCH":"2022-07-01T13:16:26.443776","MEAN_ANOMALY":"289.7244","ELEMENT_SET_NO":"999"},{"CENTER_NAME":"EARTH","DECAY_DATE":null,"APOAPSIS":"466.077","REF_FRAME":"TEME","GP_ID":"207207465","MEAN_MOTION_DOT":"0.00005822","MEAN_MOTION_DDOT":"0.0000000000000","RA_OF_ASC_NODE":"146.1403","INCLINATION":"53.0543","LAUNCH_DATE":"2020-09-03","PERIAPSIS":"460.172","TLE_LINE2":"2 46346  53.0543 146.1403 0004316  52.3190 307.8202 15.34258921103475","COUNTRY_CODE":"US","ARG_OF_PERICENTER":"52.3190","OBJECT_NAME":"STARLINK-1546","SITE":"AFETR","RCS_SIZE":"LARGE","CLASSIFICATION_TYPE":"U","EPHEMERIS_TYPE":"0","NORAD_CAT_ID":"46346","PERIOD":"93.856","BSTAR":"0.00018414000000","REV_AT_EPOCH":"10347","OBJECT_TYPE":"PAYLOAD","OBJECT_ID":"2020-062X","ECCENTRICITY":"0.00043160","SEMIMAJOR_AXIS":"6841.260","EPOCH":"2022-07-01T06:50:40.771968","ELEMENT_SET_NO":"999","MEAN_ANOMALY":"307.8202","MEAN_ELEMENT_THEORY":"SGP4","TLE_LINE1":"1 46346U 20062X   22182.28519412  .00005822  00000-0  18414-3 0  9998","TIME_SYSTEM":"UTC","FILE":"3506285","MEAN_MOTION":"15.34258921"},{"MEAN_ANOMALY":"300.0402","ELEMENT_SET_NO":"999","SEMIMAJOR_AXIS":"6925.354","ECCENTRICITY":"0.00013830","OBJECT_ID":"2020-062Y","EPOCH":"2022-07-01T17:04:03.656352","OBJECT_TYPE":"PAYLOAD","MEAN_MOTION":"15.06398112","FILE":"3506305","TLE_LINE1":"1 46347U 20062Y   22182.71115343  .00001552  00000-0  12308-3 0  9994","TIME_SYSTEM":"UTC","MEAN_ELEMENT_THEORY":"SGP4","PERIAPSIS":"546.262","LAUNCH_DATE":"2020-09-03","COUNTRY_CODE":"US","TLE_LINE2":"2 46347  53.0552 258.4354 0001383  60.0724 300.0402 15.06398112102098","INCLINATION":"53.0552","MEAN_MOTION_DDOT":"0.0000000000000","RA_OF_ASC_NODE":"258.4354","MEAN_MOTION_DOT":"0.00001552","REF_FRAME":"TEME","APOAPSIS":"548.177","DECAY_DATE":null,"CENTER_NAME":"EARTH","GP_ID":"207212877","PERIOD":"95.592","NORAD_CAT_ID":"46347","EPHEMERIS_TYPE":"0","REV_AT_EPOCH":"10209","BSTAR":"0.00012308000000","CLASSIFICATION_TYPE":"U","SITE":"AFETR","RCS_SIZE":"LARGE","OBJECT_NAME":"STARLINK-1547","ARG_OF_PERICENTER":"60.0724"},{"FILE":"3506285","MEAN_MOTION":"15.06398200","MEAN_ELEMENT_THEORY":"SGP4","TIME_SYSTEM":"UTC","TLE_LINE1":"1 46348U 20062Z   22182.55587435  .00000028  00000-0  20777-4 0  9999","EPOCH":"2022-07-01T13:20:27.543840","ECCENTRICITY":"0.00016180","SEMIMAJOR_AXIS":"6925.354","OBJECT_ID":"2020-062Z","MEAN_ANOMALY":"301.8579","ELEMENT_SET_NO":"999","OBJECT_TYPE":"PAYLOAD","CLASSIFICATION_TYPE":"U","SITE":"AFETR","OBJECT_NAME":"STARLINK-1553","RCS_SIZE":"LARGE","BSTAR":"0.00002077700000","REV_AT_EPOCH":"10154","NORAD_CAT_ID":"46348","PERIOD":"95.592","EPHEMERIS_TYPE":"0","ARG_OF_PERICENTER":"58.2567","INCLINATION":"53.0554","RA_OF_ASC_NODE":"284.1280","MEAN_MOTION_DDOT":"0.0000000000000","TLE_LINE2":"2 46348  53.0554 284.1280 0001618  58.2567 301.8579 15.06398200101541","COUNTRY_CODE":"US","PERIAPSIS":"546.099","LAUNCH_DATE":"2020-09-03","GP_ID":"207206463","APOAPSIS":"548.340","REF_FRAME":"TEME","DECAY_DATE":null,"CENTER_NAME":"EARTH","MEAN_MOTION_DOT":"0.00000028"},{"MEAN_MOTION_DOT":"-0.00000205","GP_ID":"207207715","DECAY_DATE":null,"CENTER_NAME":"EARTH","APOAPSIS":"548.254","REF_FRAME":"TEME","COUNTRY_CODE":"US","TLE_LINE2":"2 46349  53.0542 259.4525 0001488  60.9429 299.1708 15.06396769101886","LAUNCH_DATE":"2020-09-03","PERIAPSIS":"546.193","RA_OF_ASC_NODE":"259.4525","MEAN_MOTION_DDOT":"0.0000000000000","INCLINATION":"53.0542","ARG_OF_PERICENTER":"60.9429","REV_AT_EPOCH":"10188","BSTAR":"0.00000511230000","EPHEMERIS_TYPE":"0","NORAD_CAT_ID":"46349","PERIOD":"95.592","OBJECT_NAME":"STARLINK-1575","SITE":"AFETR","RCS_SIZE":"LARGE","CLASSIFICATION_TYPE":"U","OBJECT_TYPE":"PAYLOAD","ELEMENT_SET_NO":"999","MEAN_ANOMALY":"299.1708","EPOCH":"2022-07-01T11:40:17.214240","OBJECT_ID":"2020-062AA","SEMIMAJOR_AXIS":"6925.358","ECCENTRICITY":"0.00014880","TIME_SYSTEM":"UTC","TLE_LINE1":"1 46349U 20062AA  22182.48631035 -.00000205  00000-0  51123-5 0  9996","MEAN_ELEMENT_THEORY":"SGP4","MEAN_MOTION":"15.06396769","FILE":"3506285"},{"FILE":"3506285","MEAN_MOTION":"15.06389471","MEAN_ELEMENT_THEORY":"SGP4","TIME_SYSTEM":"UTC","TLE_LINE1":"1 46350U 20062AB  22182.51718203  .00000076  00000-0  24025-4 0  9990","EPOCH":"2022-07-01T12:24:44.527392","OBJECT_ID":"2020-062AB","SEMIMAJOR_AXIS":"6925.381","ECCENTRICITY":"0.00015590","ELEMENT_SET_NO":"999","MEAN_ANOMALY":"300.5501","OBJECT_TYPE":"PAYLOAD","SITE":"AFETR","OBJECT_NAME":"STARLINK-1617","RCS_SIZE":"LARGE","CLASSIFICATION_TYPE":"U","BSTAR":"0.00002402500000","REV_AT_EPOCH":"10126","EPHEMERIS_TYPE":"0","NORAD_CAT_ID":"46350","PERIOD":"95.593","ARG_OF_PERICENTER":"59.5642","RA_OF_ASC_NODE":"304.3220","MEAN_MOTION_DDOT":"0.0000000000000","INCLINATION":"53.0558","COUNTRY_CODE":"US","TLE_LINE2":"2 46350  53.0558 304.3220 0001559  59.5642 300.5501 15.06389471101269","LAUNCH_DATE":"2020-09-03","PERIAPSIS":"546.166","GP_ID":"207207966","CENTER_NAME":"EARTH","DECAY_DATE":null,"REF_FRAME":"TEME","APOAPSIS":"548.325","MEAN_MOTION_DOT":"0.00000076"},{"OBJECT_TYPE":"PAYLOAD","ELEMENT_SET_NO":"999","MEAN_ANOMALY":"295.3854","OBJECT_ID":"2020-062AC","SEMIMAJOR_AXIS":"6925.372","ECCENTRICITY":"0.00015110","EPOCH":"2022-07-01T14:06:53.364960","TLE_LINE1":"1 46351U 20062AC  22182.58811765  .00000597  00000-0  58953-4 0  9990","TIME_SYSTEM":"UTC","MEAN_ELEMENT_THEORY":"SGP4","MEAN_MOTION":"15.06392388","FILE":"3506285","MEAN_MOTION_DOT":"0.00000597","DECAY_DATE":null,"CENTER_NAME":"EARTH","REF_FRAME":"TEME","APOAPSIS":"548.283","GP_ID":"207206714","LAUNCH_DATE":"2020-09-03","PERIAPSIS":"546.190","COUNTRY_CODE":"US","TLE_LINE2":"2 46351  53.0550 283.9712 0001511  64.7291 295.3854 15.06392388101562","RA_OF_ASC_NODE":"283.9712","MEAN_MOTION_DDOT":"0.0000000000000","INCLINATION":"53.0550","ARG_OF_PERICENTER":"64.7291","EPHEMERIS_TYPE":"0","NORAD_CAT_ID":"46351","PERIOD":"95.593","REV_AT_EPOCH":"10156","BSTAR":"0.00005895300000","OBJECT_NAME":"STARLINK-1646","SITE":"AFETR","RCS_SIZE":"LARGE","CLASSIFICATION_TYPE":"U"}];
